C/2018 KJ3 (Lemmon),e,136.7088,91.5993,217.6585,813.5829,0.0000425,0.99553917,0.0000,09/09.6674/2019,2000,g 12.2,2.0
# From MPC114602
P/2018 L1 (PANSTARRS),e,10.5930,268.6304,17.9760,3.650517,0.1413099,0.48290522,107.4495,12/12.0/2020,2000,g 15.0,4.0
# From MPC118841
C/2018 L2 (ATLAS),e,67.3927,243.0238,56.2702,258.5528,0.0002371,0.99337600,0.0000,12/02.6768/2018,2000,g 10.0,4.0
# From MPC114603
P/2018 L4 (PANSTARRS),e,26.6244,145.1585,140.5529,4.940162,0.0897620,0.66019966,77.5645,12/12.0/2020,2000,g 17.5,4.0
# From MPC119996
P/2018 L5 (Leonard),e,2.2083,219.1311,93.7908,3.627675,0.1426466,0.36478333,135.7921,12/12.0/2020,2000,g 14.5,4.0
# From MPC117070
C/2018 M1 (Catalina),e,37.2882,339.4191,14.1602,21.34672,0.0099933,0.93898273,8.8514,12/12.0/2020,2000,g 15.5,4.0
# From MPC112393
C/2018 N1 (NEOWISE),e,159.4446,292.4444,354.6172,347.2587,0.0001523,0.99622871,0.0000,08/01.9297/2018,2000,g 15.5,4.0
# From MPC119996
C/2018 N2 (ASASSN),h,11/10.9700/2019,77.5281,25.2474,24.4025,1.000112,3.124764,2000,6.0,4.0
# From MPC114603
C/2018 O1 (ATLAS),e,154.0399,87.6415,162.5724,27.88800,0.0066923,0.94405498,5.5776,12/12.0/2020,2000,g 17.0,4.0
# From MPC114603
P/2018 P3 (PANSTARRS),e,8.9088,59.1870,305.8714,3.006363,0.1890784,0.41641165,150.1812,12/12.0/2020,2000,g 14.5,4.0
# From MPC114603
P/2018 P4 (PANSTARRS),e,23.1068,353.0781,8.2074,6.670896,0.0572042,0.45035613,43.7686,12/12.0/2020,2000,g 12.0,4.0
# From MPC118094
C/2018 P5 (PANSTARRS),e,7.2534,216.2427,131.7149,12.79405,0.0215373,0.64223996,14.0865,12/12.0/2020,2000,g 11.0,4.0
# From MPC118841
C/2018 R3 (Lemmon),e,69.7270,324.6367,112.8400,1696,0.0000141,0.99923974,0.0000,06/07.2180/2019,2000,g  9.5,4.0
# From MPC112393
C/2018 R4 (Fuls),e,11.6836,298.4362,345.2705,328.3107,0.0001657,0.99478143,0.0000,03/03.6561/2018,2000,g 14.0,4.0
# From MPC114603
C/2018 R5 (Lemmon),e,103.7482,171.1310,178.0450,22.78458,0.0090624,0.84099673,6.3618,12/12.0/2020,2000,g 11.5,4.0
# From MPC119996
C/2018 U1 (Lemmon),h,11/02.8109/2021,108.2993,75.4791,180.4296,1.001092,4.993379,2000,5.0,4.0
# From MPC114604
C/2018 V1 (Machholz-Fujikawa-Iwamoto),h,12/03.3407/2018,144.0536,128.8784,88.8377,1.000361,0.386019,2000,12.0,4.0
# From MPC115884
C/2018 V2 (ATLAS),e,159.1655,357.0645,318.9574,25.21755,0.0077830,0.90172364,5.8102,12/12.0/2020,2000,g 15.0,4.0
# From MPC114604
P/2018 VN2 (Leonard),e,18.2482,226.5185,138.7360,4.064772,0.1202679,0.47840969,110.6938,12/12.0/2020,2000,g 15.0,4.0
# From MPC117070
A/2018 V3,e,164.9780,308.6565,3.5128,121.4034,0.0007368,0.98896189,0.0000,09/08.6778/2019,2000,g 15.7,2.0
# From MPC114604
C/2018 V4 (Africano),e,69.0030,78.3689,359.9502,206.8926,0.0003312,0.98454487,0.0000,03/01.4444/2019,2000,g 12.5,4.0
# From MPC114604
P/2018 V5 (Trujillo-Sheppard),e,10.5846,171.2909,260.7066,8.954457,0.0367828,0.47457805,29.4680,12/12.0/2020,2000,g 12.5,4.0
# From MPC115884
C/2018 W1 (Catalina),e,83.2619,233.5924,251.2509,21.72510,0.0097333,0.93737170,5.6478,12/12.0/2020,2000,g 15.7,2.0
# From MPC119996
C/2018 W2 (Africano),h,09/05.6687/2019,116.6170,181.8527,157.9749,1.000467,1.454943,2000,9.5,4.0
# From MPC119996
C/2018 X2 (Fitzsimmons),e,23.0694,340.8269,162.0604,148.4406,0.0005450,0.98567437,0.0000,07/08.4591/2019,2000,g 12.0,4.0
# From MPC114604
C/2018 X3 (PANSTARRS),e,43.3703,78.9106,359.7641,12.38092,0.0226243,0.78217800,16.1180,12/12.0/2020,2000,g 14.5,4.0
# From MPC118842
C/2018 Y1 (Iwamoto),e,160.4002,147.5097,358.0287,141.6498,0.0005846,0.99092566,0.0000,02/07.0196/2019,2000,g 11.5,4.0
# From MPC114605
P/2018 Y2 (Africano),e,11.6827,297.2665,162.3726,7.463436,0.0483388,0.47864693,34.3292,12/12.0/2020,2000,g 11.5,4.0
# From MPC114605
P/2019 A1 (PANSTARRS),e,13.7442,312.3028,150.7992,5.123622,0.0849842,0.56835716,67.4154,12/12.0/2020,2000,g 16.0,4.0
# From MPC114605
P/2019 A2 (ATLAS),e,14.8605,139.4679,324.0837,5.723705,0.0719761,0.38135768,54.1514,12/12.0/2020,2000,g 10.5,4.0
# From MPC114605
P/2019 A3 (PANSTARRS),e,15.3665,31.3045,325.4878,3.147009,0.1765457,0.26548053,152.3319,12/12.0/2020,2000,g 16.0,4.0
# From MPC114605
P/2019 A4 (PANSTARRS),e,13.3209,119.2991,341.7727,2.614234,0.2331780,0.08874290,172.2069,12/12.0/2020,2000,g 15.0,4.0
# From MPC118842
C/2019 A5 (PANSTARRS),e,67.5567,146.6254,355.9833,21.59403,0.0098221,0.70718235,5.4243,12/12.0/2020,2000,g  9.5,4.0
# From MPC114605
P/2019 A6 (Lemmon-PANSTARRS),e,33.2301,280.2695,156.2200,5.363567,0.0793457,0.63894712,66.3225,12/12.0/2020,2000,g 16.0,4.0
# From MPC114605
P/2019 A7 (PANSTARRS),e,17.7745,280.5229,119.2740,3.185757,0.1733346,0.16108981,185.4396,12/12.0/2020,2000,g 13.5,4.0
# From MPC115884
P/2019 A8 (PANSTARRS),e,3.0790,127.5509,22.3391,3.358104,0.1601633,0.45286929,130.8647,12/12.0/2020,2000,g 16.0,4.0
# From MPC118842
C/2019 A9 (PANSTARRS),e,84.2058,278.3854,237.9624,39.87412,0.0039144,0.96412241,1.9746,12/12.0/2020,2000,g 15.0,4.0
# From MPC114606
C/2019 B1 (Africano),e,123.3637,290.4353,174.8484,146.8018,0.0005541,0.98912353,0.0000,03/19.7875/2019,2000,g 16.0,4.0
# From MPC115885
P/2019 B2 (Groeller),e,16.8342,176.3185,359.1762,3.862314,0.1298473,0.37326963,71.6689,12/12.0/2020,2000,g 14.5,4.0
# From MPC115885
C/2019 B3 (PANSTARRS),h,01/19.9361/2021,66.5386,358.4286,263.9002,1.002533,6.823636,2000,5.5,4.0
# From MPEC 2020-AA5
C/2019 C1,e,36.0235,212.3895,319.1916,763.9324,0.0000467,0.99138518,0.0000,05/05.6532/2020,2000,g 10.0,4.0
# From MPC118842
C/2019 D1 (Flewelling),e,34.0835,231.7176,70.5179,141.1532,0.0005877,0.98881619,0.0000,05/11.8768/2019,2000,g 13.0,4.0
# From MPC119997
C/2019 E3 (ATLAS),h,11/12.4411/2023,84.2908,347.2394,280.6079,1.004097,10.315069,2000,2.5,4.0
# From MPC119997
C/2019 F1 (ATLAS-Africano),h,06/22.7767/2021,54.1756,38.7261,251.1169,1.003629,3.595700,2000,5.5,4.0
# From MPC119997
C/2019 F2 (ATLAS),e,19.1958,175.7271,11.2316,16.71564,0.0144218,0.86621165,6.6314,12/12.0/2020,2000,g 12.0,4.0
# From MPEC 2020-AA5
A/2019 G2,e,159.2083,208.1509,82.6384,677.5650,0.0000559,0.99661883,0.0000,12/10.0072/2019,2000,g 16.5,2.0
# From MPC118094
A/2019 G4,h,09/15.9986/2018,138.3863,130.4642,287.8839,1.001427,5.858487,2000,13.0,2.0
# From MPC114607
P/2019 GG21 (PANSTARRS),e,6.0838,340.5806,208.4842,7.472390,0.0482519,0.47300376,28.0455,12/12.0/2020,2000,g 12.0,4.0
# From MPC115885
C/2019 H1 (NEOWISE),e,104.5727,269.1937,19.3173,233.9803,0.0002754,0.99211149,0.0000,04/27.7903/2019,2000,g 15.5,4.0
# From MPC118842
C/2019 J1 (Lemmon),e,24.5505,98.0902,167.7843,69.76076,0.0016916,0.96445916,1.0366,12/12.0/2020,2000,g 12.0,4.0
# From MPC115885
C/2019 J2 (Palomar),e,105.1484,25.4776,98.7138,674.6118,0.0000563,0.99743967,0.0000,07/19.7051/2019,2000,g 13.0,4.0
# From MPC117071
C/2019 J3 (ATLAS),h,08/01.9407/2019,131.4124,270.5238,16.5778,1.000196,2.374158,2000,13.5,4.0
# From MPC117071
C/2019 JU6 (ATLAS),e,148.3019,21.7414,94.8985,335.8586,0.0001601,0.99390889,0.0000,05/31.8868/2019,2000,g 14.5,4.0
# From MPC119997
C/2019 K1 (ATLAS),h,02/12.9822/2020,87.1440,73.3773,265.7123,1.000010,2.012674,2000,10.0,4.0
# From MPC119997
C/2019 K4 (Ye),e,105.3025,180.1636,139.7741,1585,0.0000156,0.99857390,0.0000,06/16.3266/2019,2000,g 12.5,4.0
# From MPC119997
C/2019 K5 (Young),e,15.3149,177.1651,174.9632,157.1657,0.0005002,0.98704927,0.0000,06/22.8500/2019,2000,g 13.0,4.0
# From MPC117071
A/2019 K6,e,132.3771,42.9424,187.6274,1648,0.0000147,0.99761605,0.0000,05/20.2331/2020,2000,g 13.6,2.0
# From MPC118095
C/2019 K7 (Smith),e,103.5400,307.9298,27.3075,203439,0.0000000,0.99997800,0.0000,06/16.9738/2020,2000,g  6.2,4.0
# From MPC119997
C/2019 K8 (ATLAS),e,93.2215,291.0449,85.3718,2208,0.0000095,0.99855301,0.0000,07/21.3669/2019,2000,g 11.5,4.0
# From MPC118095
C/2019 L1 (PANSTARRS),e,9.9928,254.4114,49.9515,9.835147,0.0319546,0.70604264,15.6144,12/12.0/2020,2000,g 13.5,4.0
# From MPC115886
C/2019 L2 (NEOWISE),e,152.1814,12.5826,18.7444,24.85350,0.0079547,0.93481124,4.9334,12/12.0/2020,2000,g 16.0,4.0
# From MPC119997
C/2019 L3 (ATLAS),h,01/09.7072/2022,48.3661,290.7854,171.6365,1.000932,3.553946,2000,4.5,4.0
# From MPC118095
C/2019 LB7 (Kleyna),e,164.2904,3.8756,336.4878,34.91726,0.0047769,0.92885869,2.9901,12/12.0/2020,2000,g 17.0,4.0
# From MPC118843
P/2019 M2 (ATLAS),e,12.2821,307.5964,332.5632,3.026560,0.1871889,0.64836193,100.7730,12/12.0/2020,2000,g 21.2,4.0
# From MPC118095
C/2019 M3 (ATLAS),h,01/02.7600/2019,99.4618,154.8999,87.9332,1.001377,2.418875,2000,12.2,4.0
# From MPC119997
C/2019 N1 (ATLAS),e,82.4274,13.5728,193.4467,35782,0.0000001,0.99995236,0.0000,12/01.7900/2020,2000,g  7.5,4.0
# From MPEC 2020-AA5
A/2019 O2,e,93.2862,48.3191,129.6804,57.37451,0.0022679,0.83126614,358.0791,12/12.0/2020,2000,g  9.5,2.0
# From MPC118843
A/2019 O3,h,03/08.0140/2021,89.8126,300.3792,60.0550,1.002105,8.818472,2000,10.0,2.0
# From MPC117072
A/2019 O4,e,115.0859,354.9185,61.8279,32.85283,0.0052341,0.88905689,1.6015,12/12.0/2020,2000,g 15.5,2.0
# From MPEC 2020-AA5
A/2019 Q1,h,07/20.0532/2020,155.7217,42.3482,55.9742,1.000783,4.996860,2000,12.5,2.0
# From MPC117072
A/2019 Q2,e,159.0199,188.0421,176.2965,57.33251,0.0022704,0.97807968,0.0000,07/22.3076/2019,2000,g 18.0,2.0
# From MPC117072
C/2019 Q3 (PANSTARRS),h,08/21.3209/2018,65.5275,151.3240,152.6799,1.004178,7.253191,2000,8.5,4.0
# From MPC117072
P/2019 S2 (PANSTARRS),e,10.4730,93.1295,216.8494,4.736026,0.0956275,0.20678865,63.0663,12/12.0/2020,2000,g 13.5,4.0
# From MPC118096
P/2019 S3 (PANSTARRS),e,8.6935,150.1609,212.9800,3.414699,0.1561980,0.47090723,74.0076,12/12.0/2020,2000,g 18.3,4.0
# From MPEC 2020-AA5
A/2019 S4,e,92.0240,63.1640,71.3638,234.4110,0.0002746,0.98531729,0.0000,04/07.9715/2020,2000,g 14.5,2.0
# From MPC118843
A/2019 T1,e,120.8697,6.9537,91.0266,38.25865,0.0041649,0.88808822,359.8616,12/12.0/2020,2000,g 13.0,2.0
# From MPEC 2020-AA5
A/2019 T2,e,111.4822,155.6402,239.3849,2577,0.0000075,0.99897342,0.0000,04/22.2559/2021,2000,g 12.5,2.0
# From MPC119998
C/2019 T3 (ATLAS),e,121.8625,139.5202,112.2728,4457,0.0000033,0.99866588,0.0000,03/02.6369/2021,2000,g  6.8,4.0
# From MPC119998
